{
  "type": "FeatureCollection",
  "features": [
    {
      "type": "Feature",
      "properties": { "location_id": "KA-BLR-001", "district": "Bengaluru Urban", "population": 8443675 },
      "geometry": { "type": "Polygon", "coordinates": [[[77.4, 12.8], [77.8, 12.8], [77.8, 13.15], [77.4, 13.15], [77.4, 12.8]]] }
    },
    {
      "type": "Feature",
      "properties": { "location_id": "KA-MYS-001", "district": "Mysuru", "population": 3001127 },
      "geometry": { "type": "Polygon", "coordinates": [[[76.4, 12.1], [76.9, 12.1], [76.9, 12.5], [76.4, 12.5], [76.4, 12.1]]] }
    },
    {
      "type": "Feature",
      "properties": { "location_id": "KA-BEL-001", "district": "Belagavi", "population": 4779661 },
      "geometry": { "type": "Polygon", "coordinates": [[[74.3, 15.6], [74.7, 15.6], [74.7, 16.1], [74.3, 16.1], [74.3, 15.6]]] }
    },
    {
      "type": "Feature",
      "properties": { "location_id": "KA-MNG-001", "district": "Dakshina Kannada", "population": 2089649 },
      "geometry": { "type": "Polygon", "coordinates": [[[74.7, 12.7], [75.1, 12.7], [75.1, 13.05], [74.7, 13.05], [74.7, 12.7]]] }
    },
    {
      "type": "Feature",
      "properties": { "location_id": "KA-GUL-001", "district": "Kalaburagi", "population": 2566326 },
      "geometry": { "type": "Polygon", "coordinates": [[[76.6, 17.1], [77.1, 17.1], [77.1, 17.5], [76.6, 17.5], [76.6, 17.1]]] }
    },
    {
      "type": "Feature",
      "properties": { "location_id": "KA-HAS-001", "district": "Hassan", "population": 1776421 },
      "geometry": { "type": "Polygon", "coordinates": [[[75.8, 12.8], [76.4, 12.8], [76.4, 13.2], [75.8, 13.2], [75.8, 12.8]]] }
    },
    {
      "type": "Feature",
      "properties": { "location_id": "KA-UDP-001", "district": "Udupi", "population": 1177361 },
      "geometry": { "type": "Polygon", "coordinates": [[[74.6, 13.2], [75.0, 13.2], [75.0, 13.5], [74.6, 13.5], [74.6, 13.2]]] }
    },
    {
      "type": "Feature",
      "properties": { "location_id": "KA-SHM-001", "district": "Shivamogga", "population": 1752753 },
      "geometry": { "type": "Polygon", "coordinates": [[[75.0, 13.2], [75.5, 13.2], [75.5, 13.7], [75.0, 13.7], [75.0, 13.2]]] }
    },
    {
      "type": "Feature",
      "properties": { "location_id": "KA-HBL-001", "district": "Dharwad", "population": 1847023 },
      "geometry": { "type": "Polygon", "coordinates": [[[74.8, 15.3], [75.2, 15.3], [75.2, 15.7], [74.8, 15.7], [74.8, 15.3]]] }
    },
    {
      "type": "Feature",
      "properties": { "location_id": "KA-TUM-001", "district": "Tumakuru", "population": 2678180 },
      "geometry": { "type": "Polygon", "coordinates": [[[76.9, 13.15], [77.3, 13.15], [77.3, 13.55], [76.9, 13.55], [76.9, 13.15]]] }
    }
  ]
}
